ONEWEB-0534             
1 55797U 23029B   26182.69919902  .00000052  00000+0  95982-4 0  9996
2 55797  87.9185 271.5772 0001956 102.9936 257.1416 13.20772750163061
ONEWEB-0556             
1 55798U 23029C   26182.25137902  .00000076  00000+0  15586-3 0  9998
2 55798  87.9185 271.6652 0001162  90.5938 269.5328 13.20770264163004
ONEWEB-0562             
1 55799U 23029D   26182.69247158  .00000010  00000+0 -81463-5 0  9990
2 55799  87.9185 271.5584 0001780  75.6536 284.4794 13.20771687163061
ONEWEB-0563             
1 55800U 23029E   26182.23287403  .00000028  00000+0  35876-4 0  9994
2 55800  87.9184 271.6802 0001901 106.3285 253.8058 13.20772866162999
ONEWEB-0564             
1 55801U 23029F   26182.30191093  .00000011  00000+0 -57935-5 0  9996
2 55801  87.9186 271.6400 0001926  89.2343 270.9011 13.20772121163014
ONEWEB-0638             
1 55802U 23029G   26182.24650384 -.00000338  00000+0 -94756-3 0  9996
2 55802  87.8961 286.9492 0001493  89.7770 270.3531 13.14502582161242
ONEWEB-0639             
1 55803U 23029H   26182.89199740  .00000028  00000+0  36376-4 0  9991
2 55803  87.9180 302.0470 0002045 128.6302 231.5014 13.19725303160844
ONEWEB-0640             
1 55804U 23029J   26182.25601596 -.00000134  00000+0 -39577-3 0  9994
2 55804  87.8961 286.9379 0001289 104.3339 255.7934 13.14502485161264
ONEWEB-0641             
1 55805U 23029K   26182.88726541  .00000043  00000+0  73842-4 0  9993
2 55805  87.9190 302.0384 0001966 105.7170 254.4180 13.19725920160855
ONEWEB-0642             
1 55806U 23029L   26182.88253746  .00000019  00000+0  15989-4 0  9997
2 55806  87.9185 302.0501 0002210 122.9104 237.2241 13.19725739160846
ONEWEB-0643             
1 55807U 23029M   26182.30200886 -.00000199  00000+0 -57017-3 0  9990
2 55807  87.8964 286.9158 0002364 115.8547 244.2827 13.14502612161242
ONEWEB-0644             
1 55808U 23029N   26182.87779667  .00000075  00000+0  15445-3 0  9991
2 55808  87.9181 302.0519 0002048 110.7202 249.4150 13.19725079160847
ONEWEB-0645             
1 55809U 23029P   26182.74827479  .00000052  00000+0  97802-4 0  9996
2 55809  87.9180 302.0746 0001656 112.7584 247.3724 13.19725428160828
ONEWEB-0646             
1 55810U 23029Q   26182.76564954  .00000019  00000+0  15729-4 0  9997
2 55810  87.9179 302.0719 0002048 107.7437 252.3919 13.19726156160815
ONEWEB-0648             
1 55811U 23029R   26182.27029755  .00000319  00000+0  82583-3 0  9993
2 55811  87.8969 286.8973 0001766 128.8295 231.2993 13.14502464161240
ONEWEB-0649             
1 55812U 23029S   26182.86673040  .00000022  00000+0  22672-4 0  9996
2 55812  87.9181 302.0492 0001814 107.6153 252.5178 13.19726011160866
ONEWEB-0650             
1 55813U 23029T   26182.78617314 -.00000048  00000+0 -15147-3 0  9998
2 55813  87.9183 302.0677 0002090 118.0400 242.0945 13.19725913160824
ONEWEB-0652             
1 55814U 23029U   26182.70796703 -.00000155  00000+0 -45207-3 0  9990
2 55814  87.8972 286.8169 0002071  96.3708 263.7657 13.14501985161279
ONEWEB-0653             
1 55815U 23029V   26182.31151026 -.00000107  00000+0 -32307-3 0  9995
2 55815  87.8974 286.8939 0001904  99.1491 260.9855 13.14501479161256
ONEWEB-0654             
1 55816U 23029W   26182.68734273 -.00000026  00000+0 -10552-3 0  9995
2 55816  87.8973 286.8151 0001992  90.0435 270.0924 13.14501124161321
ONEWEB-0656             
1 55817U 23029X   26182.67393137  .00000108  00000+0  23390-3 0  9998
2 55817  87.9198 271.5434 0002111  88.6822 271.4553 13.20773844163067
ONEWEB-0657             
1 55818U 23029Y   26182.78144795 -.00000011  00000+0 -59916-4 0  9994
2 55818  87.9180 302.0673 0002567  93.0296 267.1130 13.19726138160831
ONEWEB-0658             
1 55819U 23029Z   26182.77670992  .00000029  00000+0  40477-4 0  9996
2 55819  87.9191 302.0450 0002054 111.8821 248.2531 13.19726082160845
ONEWEB-0660             
1 55820U 23029AA  26182.74126082  .00000142  00000+0  34757-3 0  9990
2 55820  87.8977 286.7989 0001670 106.6370 253.4943 13.14502700161319
ONEWEB-0661             
1 55821U 23029AB  26182.24333530 -.00000256  00000+0 -72436-3 0  9998
2 55821  87.8961 286.9412 0001624 102.1547 257.9764 13.14502206161234
ONEWEB-0662             
1 55822U 23029AC  26182.27822356  .00000296  00000+0  76300-3 0  9997
2 55822  87.8956 286.9395 0001701 106.9251 253.2065 13.14503437161284
ONEWEB-0663             
1 55823U 23029AD  26182.25206866  .00000051  00000+0  92855-4 0  9991
2 55823  87.9199 271.6991 0001845 112.5129 247.6200 13.20870626163008
ONEWEB-0664             
1 55824U 23029AE  26182.28170997  .00000033  00000+0  49800-4 0  9992
2 55824  87.9184 271.6727 0001586  94.0251 266.1064 13.20771209163003
ONEWEB-0665             
1 55825U 23029AF  26182.24016046 -.00000227  00000+0 -64767-3 0  9998
2 55825  87.8965 286.9226 0001747 109.7575 250.3743 13.14502350161251
ONEWEB-0666             
1 55826U 23029AG  26182.27496619  .00000221  00000+0  51237-3 0  9990
2 55826  87.9185 271.6641 0002714  94.4215 265.7229 13.20772501163014
