OBJECT_NAME,OBJECT_ID,EPOCH,MEAN_MOTION,ECCENTRICITY,INCLINATION,RA_OF_ASC_NODE,ARG_OF_PERICENTER,MEAN_ANOMALY,EPHEMERIS_TYPE,CLASSIFICATION_TYPE,NORAD_CAT_ID,ELEMENT_SET_NO,REV_AT_EPOCH,BSTAR,MEAN_MOTION_DOT,MEAN_MOTION_DDOT
ONEWEB-0534,2023-029B,2026-07-01T16:46:50.795328,13.20772750,.0001956,87.9185,271.5772,102.9936,257.1416,0,U,55797,999,16306,.95982209E-4,.52E-6,0
ONEWEB-0556,2023-029C,2026-07-01T06:01:59.147328,13.20770264,.00011625,87.9185,271.6652,90.5938,269.5328,0,U,55798,999,16300,.15586344E-3,.76E-6,0
ONEWEB-0562,2023-029D,2026-07-01T16:37:09.544512,13.20771687,.00017802,87.9185,271.5584,75.6536,284.4794,0,U,55799,999,16306,-.8146311E-5,.1E-6,0
ONEWEB-0563,2023-029E,2026-07-01T05:35:20.316192,13.20772866,.00019016,87.9184,271.6802,106.3285,253.8058,0,U,55800,999,16299,.35875715E-4,.28E-6,0
ONEWEB-0564,2023-029F,2026-07-01T07:14:45.104352,13.20772121,.00019266,87.9186,271.6400,89.2343,270.9011,0,U,55801,999,16301,-.5793519E-5,.11E-6,0
ONEWEB-0638,2023-029G,2026-07-01T05:54:57.931776,13.14502582,.00014935,87.8961,286.9492,89.7770,270.3531,0,U,55802,999,16124,-.94756068E-3,-.338E-5,0
ONEWEB-0639,2023-029H,2026-07-01T21:24:28.575360,13.19725303,.00020456,87.9180,302.0470,128.6302,231.5014,0,U,55803,999,16084,.36375802E-4,.28E-6,0
ONEWEB-0640,2023-029J,2026-07-01T06:08:39.778944,13.14502485,.00012899,87.8961,286.9379,104.3339,255.7934,0,U,55804,999,16126,-.39576903E-3,-.134E-5,0
ONEWEB-0641,2023-029K,2026-07-01T21:17:39.731424,13.19725920,.00019664,87.9190,302.0384,105.7170,254.4180,0,U,55805,999,16085,.73842395E-4,.43E-6,0
ONEWEB-0642,2023-029L,2026-07-01T21:10:51.236544,13.19725739,.00022104,87.9185,302.0501,122.9104,237.2241,0,U,55806,999,16084,.15988589E-4,.19E-6,0
ONEWEB-0643,2023-029M,2026-07-01T07:14:53.565504,13.14502612,.00023641,87.8964,286.9158,115.8547,244.2827,0,U,55807,999,16124,-.57016764E-3,-.199E-5,0
ONEWEB-0644,2023-029N,2026-07-01T21:04:01.632288,13.19725079,.00020484,87.9181,302.0519,110.7202,249.4150,0,U,55808,999,16084,.15445067E-3,.75E-6,0
ONEWEB-0645,2023-029P,2026-07-01T17:57:30.941856,13.19725428,.00016567,87.9180,302.0746,112.7584,247.3724,0,U,55809,999,16082,.97801985E-4,.52E-6,0
ONEWEB-0646,2023-029Q,2026-07-01T18:22:32.120256,13.19726156,.00020486,87.9179,302.0719,107.7437,252.3919,0,U,55810,999,16081,.15729172E-4,.19E-6,0
ONEWEB-0648,2023-029R,2026-07-01T06:29:13.708320,13.14502464,.00017662,87.8969,286.8973,128.8295,231.2993,0,U,55811,999,16124,.82583381E-3,.319E-5,0
ONEWEB-0649,2023-029S,2026-07-01T20:48:05.506560,13.19726011,.00018143,87.9181,302.0492,107.6153,252.5178,0,U,55812,999,16086,.22672498E-4,.22E-6,0
ONEWEB-0650,2023-029T,2026-07-01T18:52:05.359296,13.19725913,.000209,87.9183,302.0677,118.0400,242.0945,0,U,55813,999,16082,-.15146923E-3,-.48E-6,0
ONEWEB-0652,2023-029U,2026-07-01T16:59:28.351392,13.14501985,.00020714,87.8972,286.8169,96.3708,263.7657,0,U,55814,999,16127,-.45206921E-3,-.155E-5,0
ONEWEB-0653,2023-029V,2026-07-01T07:28:34.486464,13.14501479,.00019049,87.8974,286.8939,99.1491,260.9855,0,U,55815,999,16125,-.32307005E-3,-.107E-5,0
ONEWEB-0654,2023-029W,2026-07-01T16:29:46.411872,13.14501124,.00019927,87.8973,286.8151,90.0435,270.0924,0,U,55816,999,16132,-.10552114E-3,-.26E-6,0
ONEWEB-0656,2023-029X,2026-07-01T16:10:27.670368,13.20773844,.00021113,87.9198,271.5434,88.6822,271.4553,0,U,55817,999,16306,.2339001E-3,.108E-5,0
ONEWEB-0657,2023-029Y,2026-07-01T18:45:17.102880,13.19726138,.00025674,87.9180,302.0673,93.0296,267.1130,0,U,55818,999,16083,-.59916193E-4,-.11E-6,0
ONEWEB-0658,2023-029Z,2026-07-01T18:38:27.737088,13.19726082,.00020541,87.9191,302.0450,111.8821,248.2531,0,U,55819,999,16084,.4047716E-4,.29E-6,0
ONEWEB-0660,2023-029AA,2026-07-01T17:47:24.934848,13.14502700,.00016705,87.8977,286.7989,106.6370,253.4943,0,U,55820,999,16131,.34756775E-3,.142E-5,0
ONEWEB-0661,2023-029AB,2026-07-01T05:50:24.169920,13.14502206,.00016242,87.8961,286.9412,102.1547,257.9764,0,U,55821,999,16123,-.72435952E-3,-.256E-5,0
ONEWEB-0662,2023-029AC,2026-07-01T06:40:38.515584,13.14503437,.00017018,87.8956,286.9395,106.9251,253.2065,0,U,55822,999,16128,.76299831E-3,.296E-5,0
ONEWEB-0663,2023-029AD,2026-07-01T06:02:58.732224,13.20870626,.00018457,87.9199,271.6991,112.5129,247.6200,0,U,55823,999,16300,.9285457E-4,.51E-6,0
ONEWEB-0664,2023-029AE,2026-07-01T06:45:39.741408,13.20771209,.00015869,87.9184,271.6727,94.0251,266.1064,0,U,55824,999,16300,.4979961E-4,.33E-6,0
ONEWEB-0665,2023-029AF,2026-07-01T05:45:49.863744,13.14502350,.00017472,87.8965,286.9226,109.7575,250.3743,0,U,55825,999,16125,-.64766556E-3,-.227E-5,0
ONEWEB-0666,2023-029AG,2026-07-01T06:35:57.078816,13.20772501,.00027149,87.9185,271.6641,94.4215,265.7229,0,U,55826,999,16301,.51236666E-3,.221E-5,0
